[{"OBJECT_NAME":"EYESAT A (AO-27)","OBJECT_ID":"1993-061C","EPOCH":"2026-03-09T16:58:07.157856","MEAN_MOTION":14.30913089,"ECCENTRICITY":0.00089503,"INCLINATION":98.6982,"RA_OF_ASC_NODE":136.1171,"ARG_OF_PERICENTER":38.8989,"MEAN_ANOMALY":321.2837,"EPHEMERIS_TYPE":0,"CLASSIFICATION_TYPE":"U","NORAD_CAT_ID":22825,"ELEMENT_SET_NO":999,"REV_AT_EPOCH":69277,"BSTAR":7.1797441e-5,"MEAN_MOTION_DOT":1.44e-6,"MEAN_MOTION_DDOT":0},{"OBJECT_NAME":"DELTA 1 DEB","OBJECT_ID":"1977-065BE","EPOCH":"2026-03-09T09:09:48.919680","MEAN_MOTION":13.52845319,"ECCENTRICITY":0.06744391,"INCLINATION":28.949,"RA_OF_ASC_NODE":116.2566,"ARG_OF_PERICENTER":133.7592,"MEAN_ANOMALY":232.0825,"EPHEMERIS_TYPE":0,"CLASSIFICATION_TYPE":"U","NORAD_CAT_ID":10227,"ELEMENT_SET_NO":999,"REV_AT_EPOCH":36115,"BSTAR":0.00043535963,"MEAN_MOTION_DOT":1.389e-5,"MEAN_MOTION_DDOT":0}]
